[{"OBJECT_NAME":"STARLINK-36523","OBJECT_ID":"2026-008R","EPOCH":"2026-03-09T09:27:48.081600","MEAN_MOTION":15.27607881,"ECCENTRICITY":0.00024545,"INCLINATION":43.0011,"RA_OF_ASC_NODE":207.1838,"ARG_OF_PERICENTER":274.7498,"MEAN_ANOMALY":85.3073,"EPHEMERIS_TYPE":0,"CLASSIFICATION_TYPE":"U","NORAD_CAT_ID":67460,"ELEMENT_SET_NO":999,"REV_AT_EPOCH":952,"BSTAR":0.00094342193,"MEAN_MOTION_DOT":0.00025813,"MEAN_MOTION_DDOT":0},{"OBJECT_NAME":"CZ-2C DEB","OBJECT_ID":"2026-009D","EPOCH":"2026-03-09T18:06:55.672992","MEAN_MOTION":15.16841441,"ECCENTRICITY":0.00999045,"INCLINATION":97.6656,"RA_OF_ASC_NODE":143.8643,"ARG_OF_PERICENTER":42.8877,"MEAN_ANOMALY":318.0091,"EPHEMERIS_TYPE":0,"CLASSIFICATION_TYPE":"U","NORAD_CAT_ID":67587,"ELEMENT_SET_NO":999,"REV_AT_EPOCH":810,"BSTAR":0.0023439167,"MEAN_MOTION_DOT":0.00052682,"MEAN_MOTION_DDOT":0}]
